ONEWEB-0578             
1 56067U 23043X   25274.75175950 -.00000018  00000+0 -74918-4 0  9998
2 56067  87.9180 295.5459 0002128  90.0280 270.1098 13.21826852124091
ONEWEB-0579             
1 56068U 23043Y   25274.81800367  .00000025  00000+0  28535-4 0  9993
2 56068  87.9182 295.5196 0001665  96.1879 263.9445 13.21826316124112
ONEWEB-0581             
1 56069U 23043Z   25274.53260973  .00000076  00000+0  16597-3 0  9996
2 56069  87.8964 280.3257 0001708  77.1956 282.9365 13.16592751124921
ONEWEB-0609             
1 56070U 23043AA  25274.81700764 -.00000268  00000+0 -74710-3 0  9992
2 56070  87.9002 310.7796 0001904  97.4751 262.6596 13.15548582122469
ONEWEB-0613             
1 56071U 23043AB  25274.81225911 -.00000669  00000+0 -18123-2 0  9999
2 56071  87.8997 310.7945 0001689 102.4400 257.6919 13.15545969122465
ONEWEB-0630             
1 56072U 23043AC  25274.80749579 -.00000217  00000+0 -61095-3 0  9996
2 56072  87.8999 310.7679 0001697 103.0660 257.0660 13.15547691122456
ONEWEB-0632             
1 56073U 23043AD  25274.80275428  .00000051  00000+0  10053-3 0  9996
2 56073  87.8998 310.7886 0001734  90.3364 269.7964 13.15547575122455
ONEWEB-0633             
1 56074U 23043AE  25274.79640557  .00000060  00000+0  12595-3 0  9997
2 56074  87.8997 310.7534 0001827 108.3531 251.7799 13.15546773122438
